LEMUR-2-FINNIAN         
1 66782U 25276DX  26189.82039194  .00001968  00000+0  16039-3 0  9998
2 66782  97.5333 260.1371 0008328  23.4790 336.6813 15.00570270 23245
LEMUR-2-STARLIGHT       
1 66783U 25276DY  26190.12930303  .00004197  00000+0  34756-3 0  9999
2 66783  97.5228 260.0177 0014764  64.9575 295.3180 14.99306207 33483
LEMUR-2-TARTIFLETTE     
1 66784U 25276DZ  26190.12764786  .00003426  00000+0  28474-3 0  9994
2 66784  97.5229 260.0239 0013793  72.8301 287.4432 14.99294218 33480
LEMUR-2-VUKASIN         
1 66785U 25276EA  26189.76947050  .00003433  00000+0  27694-3 0  9991
2 66785  97.5244 260.0251 0004051  73.4291 286.7378 15.00508276 33389
LEMUR-2-HOTSPUR-TOM     
1 66786U 25276EB  26189.98817541  .00003597  00000+0  29943-3 0  9997
2 66786  97.5219 259.8657 0013875  64.3983 295.8673 14.99200748 33399
LEMUR-2-MYRA            
1 66787U 25276EC  26189.73485132  .00004189  00000+0  33554-3 0  9999
2 66787  97.5215 259.9118 0018549  73.7991 286.5273 15.00540732 33447
LEMUR-2 FIKRETDENGIZ    
1 67363U 26004A   26189.78157677  .00002265  00000+0  24955-3 0  9993
2 67363  97.8024 188.0099 0010443  73.6588 286.5776 14.88486564 26497
TWILIGHT-1 OBJECT B     
1 67364U 26004B   26189.95015328  .00001330  00000+0  15152-3 0  9990
2 67364  97.8069 188.1805 0010061  63.6748 296.5501 14.87779263 26527
LEMUR-2-MARIO-SOUSA     
1 67365U 26004C   26190.23283615  .00002639  00000+0  28831-3 0  9991
2 67365  97.7998 188.4493 0010118  73.5699 286.6630 14.88697554 26573
LEMUR-2-SONNENBLUME     
1 67367U 26004E   26189.96571181  .00001589  00000+0  17708-3 0  9993
2 67367  97.7994 188.1619 0009657  75.6747 284.5541 14.88433763 26535
LEMUR-2-WOBLER          
1 67368U 26004F   26189.95600901  .00002446  00000+0  26776-3 0  9994
2 67368  97.8049 188.2967 0009867  67.3819 292.8441 14.88670933 26539
LEMUR-2-GRAM-E-SUE      
1 67370U 26004H   26189.94770513  .00001760  00000+0  19485-3 0  9990
2 67370  97.7979 188.1606 0008821  78.1086 282.1119 14.88571655 26532
LEMUR-2-KATIE           
1 67387U 26004AA  26189.30727682  .00002282  00000+0  24116-3 0  9994
2 67387  97.8044 188.0585 0004033  49.1270 311.0297 14.90210933 26455
LEMUR-2-HCS-BAZUS       
1 67388U 26004AB  26189.91001972  .00001261  00000+0  13573-3 0  9990
2 67388  97.8033 188.6331 0003429  48.3444 311.8067 14.90240247 26545
